{
    "links": {
        "self": "http://www.neowsapp.com/rest/v1/neo/3884107?api_key=iIulBulltgU6a56xZRHN4H3l9WmuAYTsLGpBGhQ2"
    },
    "id": "3884107",
    "neo_reference_id": "3884107",
    "name": "(2019 UN10)",
    "designation": "2019 UN10",
    "nasa_jpl_url": "http://ssd.jpl.nasa.gov/sbdb.cgi?sstr=3884107",
    "absolute_magnitude_h": 24.9,
    "estimated_diameter": {
        "kilometers": {
            "estimated_diameter_min": 0.0278326768,
            "estimated_diameter_max": 0.0622357573
        },
        "meters": {
            "estimated_diameter_min": 27.8326768072,
            "estimated_diameter_max": 62.2357573367
        },
        "miles": {
            "estimated_diameter_min": 0.0172944182,
            "estimated_diameter_max": 0.0386714948
        },
        "feet": {
            "estimated_diameter_min": 91.3145593761,
            "estimated_diameter_max": 204.1855621004
        }
    },
    "is_potentially_hazardous_asteroid": false,
    "close_approach_data": [
        {
            "close_approach_date": "2019-11-01",
            "close_approach_date_full": "2019-Nov-01 19:22",
            "epoch_date_close_approach": 1572636120000,
            "relative_velocity": {
                "kilometers_per_second": "8.2797284073",
                "kilometers_per_hour": "29807.0222661998",
                "miles_per_hour": "18520.9244742396"
            },
            "miss_distance": {
                "astronomical": "0.1067137621",
                "lunar": "41.5116534569",
                "kilometers": "15964151.509846727",
                "miles": "9919663.7672977526"
            },
            "orbiting_body": "Earth"
        }
    ],
    "orbital_data": {
        "orbit_id": "2",
        "orbit_determination_date": "2019-10-31 07:12:28",
        "first_observation_date": "2019-10-27",
        "last_observation_date": "2019-10-31",
        "data_arc_in_days": 4,
        "observations_used": 24,
        "orbit_uncertainty": "9",
        "minimum_orbit_intersection": ".104883",
        "jupiter_tisserand_invariant": "3.261",
        "epoch_osculation": "2458784.5",
        "eccentricity": ".5491529691719058",
        "semi_major_axis": "2.43170704782384",
        "inclination": "11.12142365149737",
        "ascending_node_longitude": "214.9220675107196",
        "orbital_period": "1385.049539188961",
        "perihelion_distance": "1.096327902355129",
        "perihelion_argument": "186.8250737276641",
        "aphelion_distance": "3.767086193292552",
        "perihelion_time": "2458792.929610904543",
        "mean_anomaly": "357.8089881699015",
        "mean_motion": ".2599185009734771",
        "equinox": "J2000",
        "orbit_class": {
            "orbit_class_type": "AMO",
            "orbit_class_description": "Near-Earth asteroid orbits similar to that of 1221 Amor",
            "orbit_class_range": "1.017 AU < q (perihelion) < 1.3 AU"
        }
    },
    "is_sentry_object": false
}